STARLINK-36621          
1 67561U 26016A   26055.13178606  .00162864  00000+0  10692-2 0  9996
2 67561  97.2844 114.8675 0001528  70.0114 290.1315 15.75252240  4662
STARLINK-36398          
1 67562U 26016B   26055.13921175  .00233889  00000+0  15206-2 0  9996
2 67562  97.2841 114.8551 0000943  67.4042 292.7323 15.75277812  4662
STARLINK-36403          
1 67563U 26016C   26055.25002315 -.00150059  00000+0 -10203-2 0  9997
2 67563  97.2845 115.0884 0001370  99.1348  76.9983 15.75249283  5986
STARLINK-36593          
1 67564U 26016D   26055.09790542  .00249115  00000+0  16158-2 0  9991
2 67564  97.2839 114.9144 0001675  80.0191 280.1263 15.75289338  4669
STARLINK-35725          
1 67565U 26016E   26055.11943471  .00142067  00000+0  93548-3 0  9993
2 67565  97.2843 114.8843 0001548 112.7931 247.3498 15.75241818  4660
STARLINK-36394          
1 67566U 26016F   26055.12119970  .00200282  00000+0  13094-2 0  9995
2 67566  97.2841 114.8785 0001579 101.4934 258.6508 15.75243414  4667
STARLINK-36352          
1 67567U 26016G   26055.25002315 -.00166040  00000+0 -11305-2 0  9992
2 67567  97.2850 115.1003 0000719  88.1159 122.0088 15.75263811  5896
STARLINK-36435          
1 67568U 26016H   26055.20484707  .00161656  00000+0  10623-2 0  9995
2 67568  97.2846 115.0725 0001404  77.2501 282.8921 15.75232923  4681
STARLINK-36575          
1 67569U 26016J   26055.13608409  .00237999  00000+0  12039-2 0  9992
2 67569  97.2838 115.0163 0001963 128.5432 231.6012 15.80920515  4671
STARLINK-36562          
1 67570U 26016K   26055.25002315 -.00036600  00000+0 -24534-3 0  9993
2 67570  97.2847 115.1074 0001423  81.5643 138.5607 15.75210268  5899
STARLINK-36578          
1 67571U 26016L   26055.25037012  .00157926  00000+0  10372-2 0  9993
2 67571  97.2839 115.0107 0001502  86.0108 274.1329 15.75256140  4684
STARLINK-36350          
1 67572U 26016M   26055.11555094  .00203915  00000+0  13337-2 0  9998
2 67572  97.2837 114.8866 0001618 109.1439 251.0001 15.75222934  4667
STARLINK-36588          
1 67573U 26016N   26055.11767033  .00128609  00000+0  84848-3 0  9999
2 67573  97.2846 114.8849 0001297  91.1147 269.0267 15.75236993  4661
STARLINK-36594          
1 67574U 26016P   26055.25002315  .00035602  00000+0  23876-3 0  9994
2 67574  97.2851 115.1109 0001252  55.5447 176.6050 15.75171400  5934
STARLINK-36400          
1 67575U 26016Q   26055.16354993  .00131391  00000+0  86672-3 0  9992
2 67575  97.2852 114.9758 0001757  92.3972 267.7495 15.75231298  4672
STARLINK-36591          
1 67576U 26016R   26055.27860697  .00143999  00000+0  94779-3 0  9992
2 67576  97.2848 115.1246 0002006 108.6487 251.4996 15.75245706  4690
STARLINK-36590          
1 67577U 26016S   26055.16743239  .00085985  00000+0  57089-3 0  9996
2 67577  97.2853 114.9695 0001385  57.4983 302.6416 15.75216974  4672
STARLINK-36613          
1 67578U 26016T   26055.25002315 -.00812447  00000+0 -58453-2 0  9998
2 67578  97.2842 115.1539 0001564  79.8647 254.0168 15.75727378  5899
STARLINK-36571          
1 67579U 26016U   26055.10778775  .00151738  00000+0  99764-3 0  9991
2 67579  97.2853 114.8993 0001366  97.9899 262.1522 15.75249627  4666
STARLINK-36612          
1 67580U 26016V   26055.25002315 -.00003284  00000+0 -21153-4 0  9991
2 67580  97.2848 115.1357 0001268  74.6010 213.5206 15.75192528  5890
STARLINK-36632          
1 67581U 26016W   26055.15931608  .00125634  00000+0  82899-3 0  9992
2 67581  97.2848 114.9816 0001846  88.1405 272.0072 15.75240847  4672
STARLINK-36609          
1 67582U 26016X   26055.11168045  .00197929  00000+0  12915-2 0  9993
2 67582  97.2849 114.8928 0001430  54.0964 306.0434 15.75293863  4663
STARLINK-36577          
1 67583U 26016Y   26055.25002315 -.00033029  00000+0 -22116-3 0  9993
2 67583  97.2846 115.1500 0001039  85.6515 236.4605 15.75218733  5893
STARLINK-36419          
1 67584U 26016Z   26055.14343941  .00099009  00000+0  65618-3 0  9997
2 67584  97.2849 115.0036 0001369  43.9241 316.2133 15.75218888  4678
STARLINK-36560          
1 67585U 26016AA  26055.25002315 -.00043793  00000+0 -29394-3 0  9999
2 67585  97.2844 115.1609 0001662  87.2925 258.8247 15.75213123  5830
NAVSTAR 85 (USA 581)    
1 67588U 26017A   26054.02377539  .00000001  00000+0  00000+0 0  9992
2 67588  55.0119  93.3358 0001141  31.5498 328.5234  2.00560997429320
STARLINK-36641          
1 67589U 26018A   26055.15270519  .00168999  00000+0  11085-2 0  9998
2 67589  97.2839 120.2439 0001508 107.0550 253.0880 15.75255216  5176
STARLINK-36376          
1 67590U 26018B   26055.13470874  .00150546  00000+0  99040-3 0  9991
2 67590  97.2849 120.2694 0001567 110.8470 249.2964 15.75238855  5170
STARLINK-36391          
1 67591U 26018C   26055.17449448  .00161658  00000+0  82655-3 0  9999
2 67591  97.2857 120.3688 0001630  96.6748 263.4706 15.80884752  5186
STARLINK-36603          
1 67592U 26018D   26055.13047437  .00178881  00000+0  11714-2 0  9991
2 67592  97.2845 120.2754 0001319  97.7789 262.3626 15.75264837  5176
STARLINK-36634          
1 67593U 26018E   26055.12271060  .00163323  00000+0  10723-2 0  9996
2 67593  97.2855 120.2865 0001276  86.4652 273.6759 15.75249732  5176
STARLINK-36638          
1 67594U 26018F   26055.29809103  .00248638  00000+0  12567-2 0  9991
2 67594  97.2852 120.5076 0000961  65.4907 294.6461 15.80910299  5207
STARLINK-36628          
1 67595U 26018G   26055.14035649  .00196868  00000+0  12894-2 0  9992
2 67595  97.2820 120.2606 0000988  77.0182 283.1193 15.75210909  5178
STARLINK-36629          
1 67596U 26018H   26055.14812403  .00234716  00000+0  15284-2 0  9995
2 67596  97.2840 120.2496 0001135 127.9773 232.1595 15.75238346  5179
STARLINK-36384          
1 67597U 26018J   26055.25002315 -.00156611  00000+0 -10650-2 0  9992
2 67597  97.2853 120.4547 0001441  75.9551   7.6102 15.75264820  5242
STARLINK-36358          
1 67598U 26018K   26055.26917521  .00213300  00000+0  13912-2 0  9999
2 67598  97.2839 120.3909 0001133  92.3275 267.8120 15.75261245  5194
STARLINK-36582          
1 67599U 26018L   26055.12659245  .00154050  00000+0  10126-2 0  9991
2 67599  97.2855 120.2807 0001281  94.6226 265.5185 15.75247869  5220
STARLINK-36640          
1 67600U 26018M   26055.14600275  .00143939  00000+0  94817-3 0  9999
2 67600  97.2838 120.2518 0001280 107.0728 253.0677 15.75227840  5177
STARLINK-36635          
1 67601U 26018N   26055.25002315  .00020337  00000+0  13695-3 0  9994
2 67601  97.2851 120.4417 0001290  94.0613 315.5234 15.75180445  5196
STARLINK-36631          
1 67602U 26018P   26055.25002315  .00027740  00000+0  18639-3 0  9993
2 67602  97.2849 120.4606 0001447  73.7862  21.7898 15.75172415  5187
STARLINK-36626          
1 67603U 26018Q   26055.12059557  .00197188  00000+0  12891-2 0  9997
2 67603  97.2852 120.2893 0001189  67.7919 292.3472 15.75253728  5177
STARLINK-36605          
1 67604U 26018R   26055.13823637  .00240230  00000+0  15615-2 0  9991
2 67604  97.2833 120.2629 0001898 101.7426 258.4052 15.75264932  5179
STARLINK-36281          
1 67605U 26018S   26055.16207675  .00098391  00000+0  50756-3 0  9998
2 67605  97.2851 120.3837 0001724  62.2918 297.8525 15.80861680  5189
STARLINK-35843          
1 67606U 26018T   26055.13259142  .00171405  00000+0  11238-2 0  9991
2 67606  97.2856 120.2720 0001625  92.1742 267.9709 15.75258542  5174
STARLINK-36351          
1 67607U 26018U   26055.18235203  .00187774  00000+0  12286-2 0  9999
2 67607  97.2850 120.3580 0002453 142.5001 217.6436 15.75259020  5184
STARLINK-36411          
1 67608U 26018V   26054.14407931 -.00026419  00000+0 -13809-3 0  9997
2 67608  97.2849 119.3189 0000472 338.7837  21.3411 15.80740032  5021
STARLINK-36312          
1 67609U 26018W   26055.18023970  .00182239  00000+0  11937-2 0  9990
2 67609  97.2842 120.3610 0002063  70.9201 289.2288 15.75248483  5185
STARLINK-36387          
1 67610U 26018X   26055.15429114  .00138316  00000+0  70972-3 0  9991
2 67610  97.2852 120.3935 0001658  91.4108 268.7350 15.80869231  5189
STARLINK-36636          
1 67611U 26018Y   26055.25002315  .00019193  00000+0  12925-3 0  9998
2 67611  97.2864 120.4706 0001218  57.7637  71.8018 15.75190989  5190
STARLINK-36407          
1 67612U 26018Z   26055.17388627  .00110853  00000+0  73297-3 0  9997
2 67612  97.2854 120.3714 0001997  88.5943 271.5551 15.75236288  5233
STARLINK-36597          
1 67613U 26018AA  26055.25002315 -.01966048  00000+0 -13163-1 0  9996
2 67613  97.2851 120.5028 0001847  72.1607 127.0398 15.78429131  5194
NEONSAT-1A              
1 67614U 26019A   26055.30699406  .00003672  00000+0  24443-3 0  9994
2 67614  97.4094 179.3647 0012683 215.4232 144.6155 15.07667050  3809
ELECTRON KICK STAGE R/B 
1 67616U 26019C   26055.26575935  .00538891  93313-4  19999-2 0  9990
2 67616  97.4010 181.3989 0148320 170.6489 189.7594 15.72829638  3930
STARLINK-36548          
1 67617U 26020A   26055.00002315  .00017133  00000+0  10808-3 0  9990
2 67617  42.9991 225.4853 0001710 287.6032  95.7031 15.76346953  5198
STARLINK-36601          
1 67618U 26020B   26055.25002315  .00098363  00000+0  60082-3 0  9991
2 67618  42.9994 223.3429 0001568 263.6776 348.8991 15.76336902  5233
STARLINK-36119          
1 67619U 26020C   26055.18383813  .00319895  00000+0  18893-2 0  9997
2 67619  42.9986 224.3355 0001548  43.2455 316.8536 15.76425088  3959
STARLINK-36607          
1 67620U 26020D   26055.00002315  .00184832  00000+0  11176-2 0  9993
2 67620  42.9991 225.0198 0001472 263.8470 306.0778 15.76282160  5192
STARLINK-36615          
1 67621U 26020E   26055.25002315 -.01871629  00000+0 -11838-1 0  9995
2 67621  42.9994 223.2240 0001296 257.3002  42.6499 15.78730591  5233
STARLINK-36614          
1 67622U 26020F   26053.84886925  .00138510  00000+0  83608-3 0  9994
2 67622  42.9988 232.3866 0002584 287.6022  72.4565 15.76463187  3742
